NORAD_CAT_ID,OBJECT_NAME,OBJECT_TYPE,EPOCH,MEAN_MOTION,ECCENTRICITY,INCLINATION,RA_OF_ASC_NODE,ARG_OF_PERICENTER,MEAN_ANOMALY,BSTAR,MEAN_MOTION_DOT,MEAN_MOTION_DDOT,TLE_LINE0,TLE_LINE1,TLE_LINE2,SEMIMAJOR_AXIS,PERIOD,APOGEE,PERIGEE,DECAYED
55660.0,STARLINK-5467,PAYLOAD,2024-02-02 20:15:51,14.98326392,0.0002577,69.9999,295.6147,261.073,99.0137,-2.7381e-06,-1.26e-06,0.0,0 STARLINK-5467,1 55660U 23021AJ  24033.84434291 -.00000126  00000-0 -27381-5 0  9994,2 55660  69.9999 295.6147 0002577 261.0730  99.0137 14.98326392 54565,6950.204,96.107,573.86,570.278,0.0
55660.0,STARLINK-5467,PAYLOAD,2024-02-03 02:40:23,14.98326793,0.0002772,69.9994,294.9408,271.4993,88.5849,-1.3916e-05,-2.59e-06,0.0,0 STARLINK-5467,1 55660U 23021AJ  24034.11138387 -.00000259  00000-0 -13916-4 0  9997,2 55660  69.9994 294.9408 0002772 271.4993  88.5849 14.98326793 54608,6950.203,96.107,573.994,570.141,0.0
55660.0,STARLINK-5467,PAYLOAD,2024-02-03 20:17:52,14.98329153,0.0002865,69.9991,293.0884,269.4302,90.6529,7.1554e-06,-8e-08,0.0,0 STARLINK-5467,1 55660U 23021AJ  24034.84574169 -.00000008  00000-0  71554-5 0  9993,2 55660  69.9991 293.0884 0002865 269.4302  90.6529 14.98329153 54418,6950.196,96.107,574.052,570.069,0.0
55660.0,STARLINK-5467,PAYLOAD,2024-02-03 21:54:00,14.98329546,0.0002843,69.9992,292.9201,269.3689,90.7144,9.7972e-06,2.4e-07,0.0,0 STARLINK-5467,1 55660U 23021AJ  24034.91250142  .00000024  00000-0  97972-5 0  9992,2 55660  69.9992 292.9201 0002843 269.3689  90.7144 14.98329546 54727,6950.194,96.107,574.035,570.083,0.0
55660.0,STARLINK-5467,PAYLOAD,2024-02-04 02:42:23,14.98334674,0.0002886,69.999,292.415,268.9184,91.1645,6.8081e-05,7.2e-06,0.0,0 STARLINK-5467,1 55660U 23021AJ  24035.11277619  .00000720  00000-0  68081-4 0  9994,2 55660  69.9990 292.4150 0002886 268.9184  91.1645 14.98334674 54454,6950.178,96.107,574.049,570.038,0.0
55660.0,STARLINK-5467,PAYLOAD,2024-02-04 20:19:53,14.98327806,0.000289,69.9989,290.5629,268.5616,91.5212,2.2914e-06,-6.6e-07,0.0,0 STARLINK-5467,1 55660U 23021AJ  24035.84714207 -.00000066  00000-0  22914-5 0  9993,2 55660  69.9989 290.5629 0002890 268.5616  91.5212 14.98327806 54568,6950.2,96.107,574.073,570.056,0.0
55660.0,STARLINK-5467,PAYLOAD,2024-02-04 21:56:01,14.98327334,0.0002895,69.9989,290.3945,268.502,91.5808,-3.4015e-06,-1.34e-06,0.0,0 STARLINK-5467,1 55660U 23021AJ  24035.91390258 -.00000134  00000-0 -34015-5 0  9999,2 55660  69.9989 290.3945 0002895 268.5020  91.5808 14.98327334 54872,6950.201,96.107,574.078,570.054,0.0
55660.0,STARLINK-5467,PAYLOAD,2024-02-05 02:44:25,14.98331323,0.0002888,69.9989,289.89,268.8026,91.2802,3.9166e-05,3.74e-06,0.0,0 STARLINK-5467,1 55660U 23021AJ  24036.11417890  .00000374  00000-0  39166-4 0  9999,2 55660  69.9989 289.8900 0002888 268.8026  91.2802 14.98331323 54905,6950.189,96.107,574.061,570.047,0.0
55660.0,STARLINK-5467,PAYLOAD,2024-02-05 20:21:53,14.98332773,0.0002913,69.9988,288.0384,267.9252,92.1574,-1.9717e-05,-3.28e-06,0.0,0 STARLINK-5467,1 55660U 23021AJ  24036.84853887 -.00000328  00000-0 -19717-4 0  9990,2 55660  69.9988 288.0384 0002913 267.9252  92.1574 14.98332773 54716,6950.184,96.107,574.074,570.025,0.0
55660.0,STARLINK-5467,PAYLOAD,2024-02-05 21:58:01,14.98333231,0.0002908,69.9989,287.8702,268.055,92.0276,-1.2886e-05,-2.47e-06,0.0,0 STARLINK-5467,1 55660U 23021AJ  24036.91529828 -.00000247  00000-0 -12886-4 0  9993,2 55660  69.9989 287.8702 0002908 268.0550  92.0276 14.98333231 55028,6950.183,96.107,574.069,570.027,0.0
55660.0,STARLINK-5467,PAYLOAD,2024-02-06 02:46:25,14.98336204,0.0002883,69.999,287.3657,267.4451,92.6378,2.2421e-05,1.75e-06,0.0,0 STARLINK-5467,1 55660U 23021AJ  24037.11557477  .00000175  00000-0  22421-4 0  9991,2 55660  69.9990 287.3657 0002883 267.4451  92.6378 14.98336204 55054,6950.174,96.107,574.042,570.035,0.0
55660.0,STARLINK-5467,PAYLOAD,2024-02-06 22:00:02,14.98331785,0.0002718,69.9994,285.3459,268.0336,92.0512,2.2795e-05,1.79e-06,0.0,0 STARLINK-5467,1 55660U 23021AJ  24037.91669611  .00000179  00000-0  22795-4 0  9991,2 55660  69.9994 285.3459 0002718 268.0336  92.0512 14.98331785 55178,6950.187,96.107,573.941,570.163,0.0
55660.0,STARLINK-5467,PAYLOAD,2024-02-07 01:12:18,14.9833339,0.0002687,69.9994,285.0092,267.3178,92.7674,4.1313e-05,4e-06,0.0,0 STARLINK-5467,1 55660U 23021AJ  24038.05021426  .00000400  00000-0  41313-4 0  9997,2 55660  69.9994 285.0092 0002687 267.3178  92.7674 14.98333390 54897,6950.182,96.107,573.915,570.18,0.0
55660.0,STARLINK-5467,PAYLOAD,2024-02-07 09:12:59,14.98330833,0.0002619,69.9995,284.1664,274.2946,85.7913,-4.1618e-05,-5.89e-06,0.0,0 STARLINK-5467,1 55660U 23021AJ  24038.38401825 -.00000589  00000-0 -41618-4 0  9996,2 55660  69.9995 284.1664 0002619 274.2946  85.7913 14.98330833 55245,6950.19,96.107,573.876,570.235,0.0
55660.0,STARLINK-5467,PAYLOAD,2024-02-07 18:49:47,14.98327809,0.0002576,69.9996,283.1576,268.4186,91.6678,-4.4157e-05,-6.2e-06,0.0,0 STARLINK-5467,1 55660U 23021AJ  24038.78457992 -.00000620  00000-0 -44157-4 0  9993,2 55660  69.9996 283.1576 0002576 268.4186  91.6678 14.98327809 55007,6950.2,96.107,573.855,570.274,0.0
55660.0,STARLINK-5467,PAYLOAD,2024-02-07 22:02:03,14.98326744,0.0002604,69.9996,282.8208,268.335,91.7511,-5.5354e-05,-7.53e-06,0.0,0 STARLINK-5467,1 55660U 23021AJ  24038.91810101 -.00000753  00000-0 -55354-4 0  9991,2 55660  69.9996 282.8208 0002604 268.3350  91.7511 14.98326744 55328,6950.203,96.107,573.878,570.258,0.0
55660.0,STARLINK-5467,PAYLOAD,2024-02-08 09:15:00,14.98329183,0.0002657,69.9995,281.6425,269.7512,90.3343,-3.9765e-05,-5.67e-06,0.0,0 STARLINK-5467,1 55660U 23021AJ  24039.38541980 -.00000567  00000-0 -39765-4 0  9990,2 55660  69.9995 281.6425 0002657 269.7512  90.3343 14.98329183 55393,6950.195,96.107,573.907,570.214,0.0
55660.0,STARLINK-5467,PAYLOAD,2024-02-08 20:27:56,14.9833198,0.0002822,69.9991,280.4644,268.2292,91.8544,-2.6854e-05,-4.13e-06,0.0,0 STARLINK-5467,1 55660U 23021AJ  24039.85273704 -.00000413  00000-0 -26854-4 0  9993,2 55660  69.9991 280.4644 0002822 268.2292  91.8544 14.98331980 55164,6950.187,96.107,574.013,570.09,0.0
55660.0,STARLINK-5467,PAYLOAD,2024-02-08 22:04:04,14.98331495,0.0002831,69.9991,280.2961,268.1416,91.9419,-3.17e-05,-4.71e-06,0.0,0 STARLINK-5467,1 55660U 23021AJ  24039.91949742 -.00000471  00000-0 -31700-4 0  9992,2 55660  69.9991 280.2961 0002831 268.1416  91.9419 14.98331495 55478,6950.188,96.107,574.021,570.086,0.0
55660.0,STARLINK-5467,PAYLOAD,2024-02-09 02:52:28,14.98334455,0.0002796,69.9992,279.791,268.2766,91.8073,6.4782e-06,-1.6e-07,0.0,0 STARLINK-5467,1 55660U 23021AJ  24040.11977416 -.00000016  00000-0  64782-5 0  9996,2 55660  69.9992 279.7910 0002796 268.2766  91.8073 14.98334455 55503,6950.179,96.107,573.987,570.101,0.0
55660.0,STARLINK-5467,PAYLOAD,2024-02-10 01:18:22,14.98324601,0.0002851,69.9992,277.4339,268.7967,91.2866,1.519e-05,8.8e-07,0.0,0 STARLINK-5467,1 55660U 23021AJ  24041.05442141  .00000088  00000-0  15190-4 0  9998,2 55660  69.9992 277.4339 0002851 268.7967  91.2866 14.98324601 55341,6950.21,96.107,574.056,570.093,0.0
55660.0,STARLINK-5467,PAYLOAD,2024-02-10 20:31:58,14.98331642,0.0002869,69.9991,275.4133,270.167,89.916,2.324e-05,1.84e-06,0.0,0 STARLINK-5467,1 55660U 23021AJ  24041.85553695  .00000184  00000-0  23240-4 0  9995,2 55660  69.9991 275.4133 0002869 270.1670  89.9160 14.98331642 55464,6950.188,96.107,574.047,570.059,0.0
55660.0,STARLINK-5467,PAYLOAD,2024-02-10 22:08:06,14.9833274,0.0002883,69.999,275.2449,266.891,93.1919,5.855e-06,-2.3e-07,0.0,0 STARLINK-5467,1 55660U 23021AJ  24041.92229642 -.00000023  00000-0  58550-5 0  9991,2 55660  69.9990 275.2449 0002883 266.8910  93.1919 14.98332740 55779,6950.184,96.107,574.053,570.046,0.0
55660.0,STARLINK-5467,PAYLOAD,2024-02-11 01:20:22,14.98335009,0.0002869,69.999,274.9083,268.3177,91.7653,3.3754e-05,3.1e-06,0.0,0 STARLINK-5467,1 55660U 23021AJ  24042.05581395  .00000310  00000-0  33754-4 0  9998,2 55660  69.9990 274.9083 0002869 268.3177  91.7653 14.98335009 55797,6950.177,96.107,574.036,570.048,0.0
55660.0,STARLINK-5467,PAYLOAD,2024-02-11 20:33:59,14.98329684,0.000287,69.9992,272.8888,271.0519,89.0312,4.424e-05,4.35e-06,0.0,0 STARLINK-5467,1 55660U 23021AJ  24042.85693591  .00000435  00000-0  44240-4 0  9998,2 55660  69.9992 272.8888 0002870 271.0519  89.0312 14.98329684 55617,6950.194,96.107,574.054,570.064,0.0
55660.0,STARLINK-5467,PAYLOAD,2024-02-11 22:10:07,14.9833136,0.0002831,69.9991,272.7202,270.9831,89.1004,6.639e-05,6.99e-06,0.0,0 STARLINK-5467,1 55660U 23021AJ  24042.92369415  .00000699  00000-0  66390-4 0  9993,2 55660  69.9991 272.7202 0002831 270.9831  89.1004 14.98331360 55924,6950.189,96.107,574.021,570.086,0.0
55660.0,STARLINK-5467,PAYLOAD,2024-02-12 14:11:28,14.98329959,0.0002596,69.9997,271.0379,271.4292,88.657,-3.2504e-05,-4.81e-06,0.0,0 STARLINK-5467,1 55660U 23021AJ  24043.59129737 -.00000481  00000-0 -32504-4 0  9999,2 55660  69.9997 271.0379 0002596 271.4292  88.6570 14.98329959 56027,6950.193,96.107,573.862,570.254,0.0
55660.0,STARLINK-5467,PAYLOAD,2024-02-12 22:12:08,14.9832823,0.0002656,69.9994,270.1965,269.4061,90.6794,-5.5697e-05,-7.57e-06,0.0,0 STARLINK-5467,1 55660U 23021AJ  24043.92509874 -.00000757  00000-0 -55697-4 0  9994,2 55660  69.9994 270.1965 0002656 269.4061  90.6794 14.98328230 56070,6950.198,96.107,573.909,570.217,0.0
55660.0,STARLINK-5467,PAYLOAD,2024-02-13 01:24:24,14.98328348,0.0002662,69.9994,269.8599,269.5118,90.5736,-5.3381e-05,-7.3e-06,0.0,0 STARLINK-5467,1 55660U 23021AJ  24044.05861868 -.00000730  00000-0 -53381-4 0  9992,2 55660  69.9994 269.8599 0002662 269.5118  90.5736 14.98328348 55792,6950.198,96.107,573.913,570.213,0.0
55660.0,STARLINK-5467,PAYLOAD,2024-02-13 07:48:56,14.98328652,0.0002645,69.9994,269.1865,269.6636,90.422,-5.2298e-05,-7.17e-06,0.0,0 STARLINK-5467,1 55660U 23021AJ  24044.32565861 -.00000717  00000-0 -52298-4 0  9997,2 55660  69.9994 269.1865 0002645 269.6636  90.4220 14.98328652 56132,6950.197,96.107,573.9,570.224,0.0
